ONEWEB-0564             
1 55801U 23029F   24277.85321786  .00000032  00000+0  47872-4 0  9993
2 55801  87.9276  38.0590 0001304  95.3619 264.7663 13.20771605 79840
ONEWEB-0638             
1 55802U 23029G   24277.81525585  .00000046  00000+0  90260-4 0  9997
2 55802  87.8985  53.3207 0001386 119.4543 240.6726 13.14503926 78479
ONEWEB-0639             
1 55803U 23029H   24277.86494010 -.00000001  00000+0 -35679-4 0  9997
2 55803  87.9128  68.5468 0002907 108.1699 251.9751 13.19725234 77648
ONEWEB-0640             
1 55804U 23029J   24277.44417594  .00000261  00000+0  66856-3 0  9990
2 55804  87.8982  53.3882 0001781 126.3581 233.7714 13.14504664 77733
ONEWEB-0641             
1 55805U 23029K   24277.48111178  .00000091  00000+0  19381-3 0  9996
2 55805  87.9122  68.6025 0001929  97.1851 262.9501 13.19723673 76913
ONEWEB-0642             
1 55806U 23029L   24277.85546123  .00000082  00000+0  17258-3 0  9991
2 55806  87.9127  68.5546 0002703 101.7093 258.4343 13.19724302 77642
ONEWEB-0643             
1 55807U 23029M   24277.87075594 -.00000184  00000+0 -53091-3 0  9993
2 55807  87.8987  53.2820 0002645  91.9854 268.1578 13.14502814 78479
ONEWEB-0644             
1 55808U 23029N   24277.85073033  .00000075  00000+0  15544-3 0  9996
2 55808  87.9131  68.5538 0002304  98.4069 261.7325 13.19726417 77648
